[{"OBJECT_NAME":"KORSAT-7","OBJECT_ID":"2023-185B","EPOCH":"2026-03-09T23:44:55.136256","MEAN_MOTION":15.00898391,"ECCENTRICITY":0.00224341,"INCLINATION":97.6243,"RA_OF_ASC_NODE":135.089,"ARG_OF_PERICENTER":307.6562,"MEAN_ANOMALY":52.2627,"EPHEMERIS_TYPE":0,"CLASSIFICATION_TYPE":"U","NORAD_CAT_ID":58463,"ELEMENT_SET_NO":999,"REV_AT_EPOCH":12440,"BSTAR":0.00023536002,"MEAN_MOTION_DOT":2.951e-5,"MEAN_MOTION_DDOT":0},{"OBJECT_NAME":"STARLINK-36209","OBJECT_ID":"2025-293V","EPOCH":"2026-03-09T04:15:53.702496","MEAN_MOTION":14.98321732,"ECCENTRICITY":0.00026387,"INCLINATION":70.001,"RA_OF_ASC_NODE":95.6454,"ARG_OF_PERICENTER":266.3087,"MEAN_ANOMALY":93.777,"EPHEMERIS_TYPE":0,"CLASSIFICATION_TYPE":"U","NORAD_CAT_ID":67022,"ELEMENT_SET_NO":999,"REV_AT_EPOCH":1481,"BSTAR":-0.00072279762,"MEAN_MOTION_DOT":-8.704e-5,"MEAN_MOTION_DDOT":0}]
